[{"OBJECT_NAME":"PLEIADES 1A","OBJECT_ID":"2011-076F","EPOCH":"2026-03-09T22:28:30.112032","MEAN_MOTION":14.5854003,"ECCENTRICITY":0.00017089,"INCLINATION":98.204,"RA_OF_ASC_NODE":145.3465,"ARG_OF_PERICENTER":88.1046,"MEAN_ANOMALY":20.7914,"EPHEMERIS_TYPE":0,"CLASSIFICATION_TYPE":"U","NORAD_CAT_ID":38012,"ELEMENT_SET_NO":999,"REV_AT_EPOCH":75752,"BSTAR":9.8090711e-5,"MEAN_MOTION_DOT":4.1e-6,"MEAN_MOTION_DDOT":0},{"OBJECT_NAME":"CZ-2D R\/B","OBJECT_ID":"2022-129B","EPOCH":"2026-03-09T23:38:10.507776","MEAN_MOTION":14.56728846,"ECCENTRICITY":0.00171337,"INCLINATION":98.2132,"RA_OF_ASC_NODE":73.4876,"ARG_OF_PERICENTER":208.761,"MEAN_ANOMALY":151.2645,"EPHEMERIS_TYPE":0,"CLASSIFICATION_TYPE":"U","NORAD_CAT_ID":54030,"ELEMENT_SET_NO":999,"REV_AT_EPOCH":18156,"BSTAR":0.00010663234,"MEAN_MOTION_DOT":4.31e-6,"MEAN_MOTION_DDOT":0}]
